[{"OBJECT_NAME":"STARLINK-1888","OBJECT_ID":"2020-088BB","EPOCH":"2026-03-09T21:33:21.537216","MEAN_MOTION":15.48275914,"ECCENTRICITY":0.00048731,"INCLINATION":53.0534,"RA_OF_ASC_NODE":278.4893,"ARG_OF_PERICENTER":159.2034,"MEAN_ANOMALY":200.9172,"EPHEMERIS_TYPE":0,"CLASSIFICATION_TYPE":"U","NORAD_CAT_ID":47171,"ELEMENT_SET_NO":999,"REV_AT_EPOCH":29218,"BSTAR":0.0014211074,"MEAN_MOTION_DOT":0.00076565,"MEAN_MOTION_DDOT":0},{"OBJECT_NAME":"SL-3 R\/B","OBJECT_ID":"1983-010B","EPOCH":"2026-03-09T21:22:10.613568","MEAN_MOTION":15.46365595,"ECCENTRICITY":0.00179542,"INCLINATION":81.106,"RA_OF_ASC_NODE":2.0014,"ARG_OF_PERICENTER":50.5381,"MEAN_ANOMALY":309.7449,"EPHEMERIS_TYPE":0,"CLASSIFICATION_TYPE":"U","NORAD_CAT_ID":13819,"ELEMENT_SET_NO":999,"REV_AT_EPOCH":35797,"BSTAR":0.00039060768,"MEAN_MOTION_DOT":0.00019461,"MEAN_MOTION_DDOT":0}]
